ONEWEB-0092             
1 45437U 20020P   25326.33073317  .00000461  00000+0  12652-2 0  9990
2 45437  87.8868  62.2536 0001456 102.8602 257.2688 13.11418132275679
ONEWEB-0085             
1 45438U 20020Q   25326.21459148 -.00000371  00000+0 -10815-2 0  9999
2 45438  87.8866  62.2868 0001646 103.9087 256.2224 13.11415624275540
ONEWEB-0096             
1 45439U 20020R   25326.21628485 -.00000393  00000+0 -11450-2 0  9992
2 45439  87.8875  62.2647 0001806 107.9947 252.1378 13.11415315275534
ONEWEB-0037             
1 45440U 20020S   25326.34938860  .00000361  00000+0  98215-3 0  9997
2 45440  87.8882  62.2064 0001580 104.3531 255.7772 13.11414020275580
ONEWEB-0042             
1 45441U 20020T   25326.28227485 -.00000015  00000+0 -78673-4 0  9990
2 45441  87.8867  62.2513 0001567 107.7227 252.4072 13.11415538275545
ONEWEB-0098             
1 45442U 20020U   25326.20187383  .00000146  00000+0  37689-3 0  9999
2 45442  87.8872  62.2795 0001727 101.6621 258.4700 13.11415692275515
ONEWEB-0055             
1 45443U 20020V   25326.33752000  .00000634  00000+0  17527-2 0  9998
2 45443  87.8866  62.2529 0001755 102.1105 258.0220 13.11415996275507
ONEWEB-0093             
1 45444U 20020W   25326.31306821 -.00000185  00000+0 -55739-3 0  9994
2 45444  87.8872  62.2445 0001733 117.8694 242.2609 13.11417799275569
ONEWEB-0029             
1 45445U 20020X   25326.32903617  .00000438  00000+0  12010-2 0  9995
2 45445  87.8870  62.2539 0001791 107.4334 252.6990 13.11419886275547
ONEWEB-0068             
1 45446U 20020Y   25326.31279502 -.00000226  00000+0 -67457-3 0  9997
2 45446  87.8876  62.2464 0001787 108.2014 251.9309 13.11417233275483
ONEWEB-0046             
1 45447U 20020Z   25326.30444684 -.00000505  00000+0 -14619-2 0  9993
2 45447  87.8871  62.2557 0001536 111.1150 249.0142 13.11417240275490
ONEWEB-0063             
1 45448U 20020AA  25326.33328398  .00000573  00000+0  15800-2 0  9996
2 45448  87.8869  62.2480 0001477 104.6511 255.4780 13.11417653275582
ONEWEB-0019             
1 45449U 20020AB  25326.30697975 -.00000407  00000+0 -11829-2 0  9999
2 45449  87.8857  62.2651 0001804 103.1949 256.9380 13.11416300275426
ONEWEB-0094             
1 45450U 20020AC  25326.20092391  .00000092  00000+0  20375-3 0  9996
2 45450  87.9134  46.9927 0001773 103.8108 256.3221 13.17651410279051
ONEWEB-0087             
1 45451U 20020AD  25326.34331603  .00000522  00000+0  14380-2 0  9990
2 45451  87.8882  62.2020 0001953 111.7643 248.3693 13.11414863275477
ONEWEB-0082             
1 45452U 20020AE  25326.26376573  .00000620  00000+0  17140-2 0  9993
2 45452  87.8881  62.2433 0001909 108.9183 251.2152 13.11415808275555
ONEWEB-0050             
1 45453U 20020AF  25326.35027831  .00004234  00000+0  44441-3 0  9994
2 45453  88.9227 261.4251 0004495  39.4705 320.6850 14.89336492309588
