[{"OBJECT_NAME":"ONEWEB-0092","OBJECT_ID":"2020-020P","EPOCH":"2025-11-22T07:56:15.345888","MEAN_MOTION":13.11418132,"ECCENTRICITY":0.0001456,"INCLINATION":87.8868,"RA_OF_ASC_NODE":62.2536,"ARG_OF_PERICENTER":102.8602,"MEAN_ANOMALY":257.2688,"EPHEMERIS_TYPE":0,"CLASSIFICATION_TYPE":"U","NORAD_CAT_ID":45437,"ELEMENT_SET_NO":999,"REV_AT_EPOCH":27567,"BSTAR":0.0012652,"MEAN_MOTION_DOT":4.61e-6,"MEAN_MOTION_DDOT":0},{"OBJECT_NAME":"ONEWEB-0085","OBJECT_ID":"2020-020Q","EPOCH":"2025-11-22T05:09:00.703872","MEAN_MOTION":13.11415624,"ECCENTRICITY":0.0001646,"INCLINATION":87.8866,"RA_OF_ASC_NODE":62.2868,"ARG_OF_PERICENTER":103.9087,"MEAN_ANOMALY":256.2224,"EPHEMERIS_TYPE":0,"CLASSIFICATION_TYPE":"U","NORAD_CAT_ID":45438,"ELEMENT_SET_NO":999,"REV_AT_EPOCH":27554,"BSTAR":-0.0010815,"MEAN_MOTION_DOT":-3.71e-6,"MEAN_MOTION_DDOT":0},{"OBJECT_NAME":"ONEWEB-0096","OBJECT_ID":"2020-020R","EPOCH":"2025-11-22T05:11:27.011040","MEAN_MOTION":13.11415315,"ECCENTRICITY":0.0001806,"INCLINATION":87.8875,"RA_OF_ASC_NODE":62.2647,"ARG_OF_PERICENTER":107.9947,"MEAN_ANOMALY":252.1378,"EPHEMERIS_TYPE":0,"CLASSIFICATION_TYPE":"U","NORAD_CAT_ID":45439,"ELEMENT_SET_NO":999,"REV_AT_EPOCH":27553,"BSTAR":-0.001145,"MEAN_MOTION_DOT":-3.93e-6,"MEAN_MOTION_DDOT":0},{"OBJECT_NAME":"ONEWEB-0037","OBJECT_ID":"2020-020S","EPOCH":"2025-11-22T08:23:07.175040","MEAN_MOTION":13.1141402,"ECCENTRICITY":0.000158,"INCLINATION":87.8882,"RA_OF_ASC_NODE":62.2064,"ARG_OF_PERICENTER":104.3531,"MEAN_ANOMALY":255.7772,"EPHEMERIS_TYPE":0,"CLASSIFICATION_TYPE":"U","NORAD_CAT_ID":45440,"ELEMENT_SET_NO":999,"REV_AT_EPOCH":27558,"BSTAR":0.00098215,"MEAN_MOTION_DOT":3.61e-6,"MEAN_MOTION_DDOT":0},{"OBJECT_NAME":"ONEWEB-0042","OBJECT_ID":"2020-020T","EPOCH":"2025-11-22T06:46:28.547040","MEAN_MOTION":13.11415538,"ECCENTRICITY":0.0001567,"INCLINATION":87.8867,"RA_OF_ASC_NODE":62.2513,"ARG_OF_PERICENTER":107.7227,"MEAN_ANOMALY":252.4072,"EPHEMERIS_TYPE":0,"CLASSIFICATION_TYPE":"U","NORAD_CAT_ID":45441,"ELEMENT_SET_NO":999,"REV_AT_EPOCH":27554,"BSTAR":-7.8673e-5,"MEAN_MOTION_DOT":-1.5e-7,"MEAN_MOTION_DDOT":0},{"OBJECT_NAME":"ONEWEB-0098","OBJECT_ID":"2020-020U","EPOCH":"2025-11-22T04:50:41.898912","MEAN_MOTION":13.11415692,"ECCENTRICITY":0.0001727,"INCLINATION":87.8872,"RA_OF_ASC_NODE":62.2795,"ARG_OF_PERICENTER":101.6621,"MEAN_ANOMALY":258.47,"EPHEMERIS_TYPE":0,"CLASSIFICATION_TYPE":"U","NORAD_CAT_ID":45442,"ELEMENT_SET_NO":999,"REV_AT_EPOCH":27551,"BSTAR":0.00037689,"MEAN_MOTION_DOT":1.46e-6,"MEAN_MOTION_DDOT":0},{"OBJECT_NAME":"ONEWEB-0055","OBJECT_ID":"2020-020V","EPOCH":"2025-11-22T08:06:01.728000","MEAN_MOTION":13.11415996,"ECCENTRICITY":0.0001755,"INCLINATION":87.8866,"RA_OF_ASC_NODE":62.2529,"ARG_OF_PERICENTER":102.1105,"MEAN_ANOMALY":258.022,"EPHEMERIS_TYPE":0,"CLASSIFICATION_TYPE":"U","NORAD_CAT_ID":45443,"ELEMENT_SET_NO":999,"REV_AT_EPOCH":27550,"BSTAR":0.0017527,"MEAN_MOTION_DOT":6.34e-6,"MEAN_MOTION_DDOT":0},{"OBJECT_NAME":"ONEWEB-0093","OBJECT_ID":"2020-020W","EPOCH":"2025-11-22T07:30:49.093344","MEAN_MOTION":13.11417799,"ECCENTRICITY":0.0001733,"INCLINATION":87.8872,"RA_OF_ASC_NODE":62.2445,"ARG_OF_PERICENTER":117.8694,"MEAN_ANOMALY":242.2609,"EPHEMERIS_TYPE":0,"CLASSIFICATION_TYPE":"U","NORAD_CAT_ID":45444,"ELEMENT_SET_NO":999,"REV_AT_EPOCH":27556,"BSTAR":-0.00055739,"MEAN_MOTION_DOT":-1.85e-6,"MEAN_MOTION_DDOT":0},{"OBJECT_NAME":"ONEWEB-0029","OBJECT_ID":"2020-020X","EPOCH":"2025-11-22T07:53:48.725088","MEAN_MOTION":13.11419886,"ECCENTRICITY":0.0001791,"INCLINATION":87.887,"RA_OF_ASC_NODE":62.2539,"ARG_OF_PERICENTER":107.4334,"MEAN_ANOMALY":252.699,"EPHEMERIS_TYPE":0,"CLASSIFICATION_TYPE":"U","NORAD_CAT_ID":45445,"ELEMENT_SET_NO":999,"REV_AT_EPOCH":27554,"BSTAR":0.001201,"MEAN_MOTION_DOT":4.38e-6,"MEAN_MOTION_DDOT":0},{"OBJECT_NAME":"ONEWEB-0068","OBJECT_ID":"2020-020Y","EPOCH":"2025-11-22T07:30:25.489728","MEAN_MOTION":13.11417233,"ECCENTRICITY":0.0001787,"INCLINATION":87.8876,"RA_OF_ASC_NODE":62.2464,"ARG_OF_PERICENTER":108.2014,"MEAN_ANOMALY":251.9309,"EPHEMERIS_TYPE":0,"CLASSIFICATION_TYPE":"U","NORAD_CAT_ID":45446,"ELEMENT_SET_NO":999,"REV_AT_EPOCH":27548,"BSTAR":-0.00067457,"MEAN_MOTION_DOT":-2.26e-6,"MEAN_MOTION_DDOT":0},{"OBJECT_NAME":"ONEWEB-0046","OBJECT_ID":"2020-020Z","EPOCH":"2025-11-22T07:18:24.206976","MEAN_MOTION":13.1141724,"ECCENTRICITY":0.0001536,"INCLINATION":87.8871,"RA_OF_ASC_NODE":62.2557,"ARG_OF_PERICENTER":111.115,"MEAN_ANOMALY":249.0142,"EPHEMERIS_TYPE":0,"CLASSIFICATION_TYPE":"U","NORAD_CAT_ID":45447,"ELEMENT_SET_NO":999,"REV_AT_EPOCH":27549,"BSTAR":-0.0014619,"MEAN_MOTION_DOT":-5.05e-6,"MEAN_MOTION_DDOT":0},{"OBJECT_NAME":"ONEWEB-0063","OBJECT_ID":"2020-020AA","EPOCH":"2025-11-22T07:59:55.735872","MEAN_MOTION":13.11417653,"ECCENTRICITY":0.0001477,"INCLINATION":87.8869,"RA_OF_ASC_NODE":62.248,"ARG_OF_PERICENTER":104.6511,"MEAN_ANOMALY":255.478,"EPHEMERIS_TYPE":0,"CLASSIFICATION_TYPE":"U","NORAD_CAT_ID":45448,"ELEMENT_SET_NO":999,"REV_AT_EPOCH":27558,"BSTAR":0.00158,"MEAN_MOTION_DOT":5.73e-6,"MEAN_MOTION_DDOT":0},{"OBJECT_NAME":"ONEWEB-0019","OBJECT_ID":"2020-020AB","EPOCH":"2025-11-22T07:22:03.050400","MEAN_MOTION":13.114163,"ECCENTRICITY":0.0001804,"INCLINATION":87.8857,"RA_OF_ASC_NODE":62.2651,"ARG_OF_PERICENTER":103.1949,"MEAN_ANOMALY":256.938,"EPHEMERIS_TYPE":0,"CLASSIFICATION_TYPE":"U","NORAD_CAT_ID":45449,"ELEMENT_SET_NO":999,"REV_AT_EPOCH":27542,"BSTAR":-0.0011829,"MEAN_MOTION_DOT":-4.07e-6,"MEAN_MOTION_DDOT":0},{"OBJECT_NAME":"ONEWEB-0094","OBJECT_ID":"2020-020AC","EPOCH":"2025-11-22T04:49:19.825824","MEAN_MOTION":13.1765141,"ECCENTRICITY":0.0001773,"INCLINATION":87.9134,"RA_OF_ASC_NODE":46.9927,"ARG_OF_PERICENTER":103.8108,"MEAN_ANOMALY":256.3221,"EPHEMERIS_TYPE":0,"CLASSIFICATION_TYPE":"U","NORAD_CAT_ID":45450,"ELEMENT_SET_NO":999,"REV_AT_EPOCH":27905,"BSTAR":0.00020375,"MEAN_MOTION_DOT":9.2e-7,"MEAN_MOTION_DDOT":0},{"OBJECT_NAME":"ONEWEB-0087","OBJECT_ID":"2020-020AD","EPOCH":"2025-11-22T08:14:22.504992","MEAN_MOTION":13.11414863,"ECCENTRICITY":0.0001953,"INCLINATION":87.8882,"RA_OF_ASC_NODE":62.202,"ARG_OF_PERICENTER":111.7643,"MEAN_ANOMALY":248.3693,"EPHEMERIS_TYPE":0,"CLASSIFICATION_TYPE":"U","NORAD_CAT_ID":45451,"ELEMENT_SET_NO":999,"REV_AT_EPOCH":27547,"BSTAR":0.001438,"MEAN_MOTION_DOT":5.22e-6,"MEAN_MOTION_DDOT":0},{"OBJECT_NAME":"ONEWEB-0082","OBJECT_ID":"2020-020AE","EPOCH":"2025-11-22T06:19:49.359072","MEAN_MOTION":13.11415808,"ECCENTRICITY":0.0001909,"INCLINATION":87.8881,"RA_OF_ASC_NODE":62.2433,"ARG_OF_PERICENTER":108.9183,"MEAN_ANOMALY":251.2152,"EPHEMERIS_TYPE":0,"CLASSIFICATION_TYPE":"U","NORAD_CAT_ID":45452,"ELEMENT_SET_NO":999,"REV_AT_EPOCH":27555,"BSTAR":0.001714,"MEAN_MOTION_DOT":6.2e-6,"MEAN_MOTION_DDOT":0},{"OBJECT_NAME":"ONEWEB-0050","OBJECT_ID":"2020-020AF","EPOCH":"2025-11-22T08:24:24.045984","MEAN_MOTION":14.89336492,"ECCENTRICITY":0.0004495,"INCLINATION":88.9227,"RA_OF_ASC_NODE":261.4251,"ARG_OF_PERICENTER":39.4705,"MEAN_ANOMALY":320.685,"EPHEMERIS_TYPE":0,"CLASSIFICATION_TYPE":"U","NORAD_CAT_ID":45453,"ELEMENT_SET_NO":999,"REV_AT_EPOCH":30958,"BSTAR":0.00044441,"MEAN_MOTION_DOT":4.234e-5,"MEAN_MOTION_DDOT":0}]
